STARLINK-37244
1 68529U 26068X   26110.69375816  .00344382  00000+0  16691-2 0  9995
2 68529  53.1574 298.6453 0000715  62.0949 298.0146 15.81009088  3314
STARLINK-36285
1 68530U 26068Y   26110.69225914  .00300313  00000+0  14648-2 0  9996
2 68530  53.1573 298.6347 0000808 149.5542 210.5528 15.80990322  3312
STARLINK-36294
1 68531U 26068Z   26110.62829400  .00247804  00000+0  12193-2 0  9998
2 68531  53.1570 298.9466 0001074 143.3361 216.7736 15.80944629  3309
STARLINK-36249
1 68532U 26068AA  26110.62679219  .00479980  00000+0  22822-2 0  9992
2 68532  53.1573 298.9366 0000293 166.6674 193.4357 15.81064526  3309
STARLINK-36252
1 68533U 26068AB  26110.12103238  .00249134  00000+0  12243-2 0  9993
2 68533  53.1572 301.4708 0000799  26.2642 333.8421 15.80969058  3222
STARLINK-36299
1 68534U 26068AC  26110.49885643  .00178888  00000+0  88987-3 0  9997
2 68534  53.1576 299.5610 0001333  76.9044 283.2128 15.80905868  3286
STARLINK-37234
1 68535U 26068AD  26109.99233725  .00190233  00000+0  94225-3 0  9999
2 68535  53.1574 302.0896 0000319  97.7244 262.3815 15.80964836  3200
STARLINK-37173
1 68536U 26068AE  26110.49810621  .00263678  00000+0  12937-2 0  9996
2 68536  53.1572 299.5544 0000868  77.1958 282.9162 15.80963531  3284
SWC-1
1 68540U 26069C   26107.51011483 -.00000351  00000+0  00000+0 0  9993
2 68540  28.3533 357.7706 8357664  80.9928 279.0715  1.01840683   168
STARLINK-37326
1 68542U 26070A   26111.00002315 -.00027351  00000+0 -13552-3 0  9990
2 68542  53.1574 172.3436 0001366 107.8823 313.8137 15.80863914  4187
STARLINK-36308
1 68543U 26070B   26111.00002315 -.00020186  00000+0 -99001-4 0  9994
2 68543  53.1574 172.3346 0000994  94.1255 331.8405 15.80866510  4139
STARLINK-37263
1 68544U 26070C   26111.00002315 -.00058875  00000+0 -29666-3 0  9990
2 68544  53.1574 172.3174 0001111 121.1549 313.3499 15.80881162  4181
STARLINK-37289
1 68545U 26070D   26111.00002315 -.00011382  00000+0 -54248-4 0  9998
2 68545  53.1574 172.3259 0000981  68.3343   1.9070 15.80855072  4180
STARLINK-37290
1 68546U 26070E   26111.00002315 -.00061155  00000+0 -30833-3 0  9995
2 68546  53.1575 172.3080 0001557 118.3107 320.4672 15.80882398  4186
STARLINK-37245
1 68547U 26070F   26111.00002315 -.00033939  00000+0 -16909-3 0  9993
2 68547  53.1574 172.2905 0000890 117.4968 329.8291 15.80872934  4180
SL-4 R/B
1 68537U 26061S   26111.29286399  .00318206  40674-4  63152-3 0  9998
2 68537  82.3046  76.1645 0014481 310.5842  49.4174 15.99682836  4554
