[{"OBJECT_NAME":"STARLINK-37244","OBJECT_ID":"2026-068X","EPOCH":"2026-04-20T16:39:00.705024","MEAN_MOTION":15.81009088,"ECCENTRICITY":7.15e-5,"INCLINATION":53.1574,"RA_OF_ASC_NODE":298.6453,"ARG_OF_PERICENTER":62.0949,"MEAN_ANOMALY":298.0146,"EPHEMERIS_TYPE":0,"CLASSIFICATION_TYPE":"U","NORAD_CAT_ID":68529,"ELEMENT_SET_NO":999,"REV_AT_EPOCH":331,"BSTAR":0.0016691437,"MEAN_MOTION_DOT":0.00344382,"MEAN_MOTION_DDOT":0},{"OBJECT_NAME":"STARLINK-36285","OBJECT_ID":"2026-068Y","EPOCH":"2026-04-20T16:36:51.189696","MEAN_MOTION":15.80990322,"ECCENTRICITY":8.084e-5,"INCLINATION":53.1573,"RA_OF_ASC_NODE":298.6347,"ARG_OF_PERICENTER":149.5542,"MEAN_ANOMALY":210.5528,"EPHEMERIS_TYPE":0,"CLASSIFICATION_TYPE":"U","NORAD_CAT_ID":68530,"ELEMENT_SET_NO":999,"REV_AT_EPOCH":331,"BSTAR":0.001464806,"MEAN_MOTION_DOT":0.00300313,"MEAN_MOTION_DDOT":0},{"OBJECT_NAME":"STARLINK-36294","OBJECT_ID":"2026-068Z","EPOCH":"2026-04-20T15:04:44.601600","MEAN_MOTION":15.80944629,"ECCENTRICITY":0.00010749,"INCLINATION":53.157,"RA_OF_ASC_NODE":298.9466,"ARG_OF_PERICENTER":143.3361,"MEAN_ANOMALY":216.7736,"EPHEMERIS_TYPE":0,"CLASSIFICATION_TYPE":"U","NORAD_CAT_ID":68531,"ELEMENT_SET_NO":999,"REV_AT_EPOCH":330,"BSTAR":0.0012193122,"MEAN_MOTION_DOT":0.00247804,"MEAN_MOTION_DDOT":0},{"OBJECT_NAME":"STARLINK-36249","OBJECT_ID":"2026-068AA","EPOCH":"2026-04-20T15:02:34.845216","MEAN_MOTION":15.81064526,"ECCENTRICITY":2.939e-5,"INCLINATION":53.1573,"RA_OF_ASC_NODE":298.9366,"ARG_OF_PERICENTER":166.6674,"MEAN_ANOMALY":193.4357,"EPHEMERIS_TYPE":0,"CLASSIFICATION_TYPE":"U","NORAD_CAT_ID":68532,"ELEMENT_SET_NO":999,"REV_AT_EPOCH":330,"BSTAR":0.0022822471,"MEAN_MOTION_DOT":0.0047998,"MEAN_MOTION_DDOT":0},{"OBJECT_NAME":"STARLINK-36252","OBJECT_ID":"2026-068AB","EPOCH":"2026-04-20T02:54:17.197632","MEAN_MOTION":15.80969058,"ECCENTRICITY":7.991e-5,"INCLINATION":53.1572,"RA_OF_ASC_NODE":301.4708,"ARG_OF_PERICENTER":26.2642,"MEAN_ANOMALY":333.8421,"EPHEMERIS_TYPE":0,"CLASSIFICATION_TYPE":"U","NORAD_CAT_ID":68533,"ELEMENT_SET_NO":999,"REV_AT_EPOCH":322,"BSTAR":0.0012242584,"MEAN_MOTION_DOT":0.00249134,"MEAN_MOTION_DDOT":0},{"OBJECT_NAME":"STARLINK-36299","OBJECT_ID":"2026-068AC","EPOCH":"2026-04-20T11:58:21.195552","MEAN_MOTION":15.80905868,"ECCENTRICITY":0.00013338,"INCLINATION":53.1576,"RA_OF_ASC_NODE":299.561,"ARG_OF_PERICENTER":76.9044,"MEAN_ANOMALY":283.2128,"EPHEMERIS_TYPE":0,"CLASSIFICATION_TYPE":"U","NORAD_CAT_ID":68534,"ELEMENT_SET_NO":999,"REV_AT_EPOCH":328,"BSTAR":0.00088987061,"MEAN_MOTION_DOT":0.00178888,"MEAN_MOTION_DDOT":0},{"OBJECT_NAME":"STARLINK-37234","OBJECT_ID":"2026-068AD","EPOCH":"2026-04-19T23:48:57.938400","MEAN_MOTION":15.80964836,"ECCENTRICITY":3.194e-5,"INCLINATION":53.1574,"RA_OF_ASC_NODE":302.0896,"ARG_OF_PERICENTER":97.7244,"MEAN_ANOMALY":262.3815,"EPHEMERIS_TYPE":0,"CLASSIFICATION_TYPE":"U","NORAD_CAT_ID":68535,"ELEMENT_SET_NO":999,"REV_AT_EPOCH":320,"BSTAR":0.00094225276,"MEAN_MOTION_DOT":0.00190233,"MEAN_MOTION_DDOT":0},{"OBJECT_NAME":"STARLINK-37173","OBJECT_ID":"2026-068AE","EPOCH":"2026-04-20T11:57:16.376544","MEAN_MOTION":15.80963531,"ECCENTRICITY":8.688e-5,"INCLINATION":53.1572,"RA_OF_ASC_NODE":299.5544,"ARG_OF_PERICENTER":77.1958,"MEAN_ANOMALY":282.9162,"EPHEMERIS_TYPE":0,"CLASSIFICATION_TYPE":"U","NORAD_CAT_ID":68536,"ELEMENT_SET_NO":999,"REV_AT_EPOCH":328,"BSTAR":0.0012936594,"MEAN_MOTION_DOT":0.00263678,"MEAN_MOTION_DDOT":0},{"OBJECT_NAME":"SL-4 R/B","OBJECT_ID":"2026-061S","EPOCH":"2026-04-21T07:01:43.448736","MEAN_MOTION":15.99682836,"ECCENTRICITY":0.0014481,"INCLINATION":82.3046,"RA_OF_ASC_NODE":76.1645,"ARG_OF_PERICENTER":310.5842,"MEAN_ANOMALY":49.4174,"EPHEMERIS_TYPE":0,"CLASSIFICATION_TYPE":"U","NORAD_CAT_ID":68537,"ELEMENT_SET_NO":999,"REV_AT_EPOCH":455,"BSTAR":0.00063152,"MEAN_MOTION_DOT":0.00318206,"MEAN_MOTION_DDOT":4.0674e-5},{"OBJECT_NAME":"SWC-1","OBJECT_ID":"2026-069C","EPOCH":"2026-04-17T12:14:33.921312","MEAN_MOTION":1.01840683,"ECCENTRICITY":0.8357664,"INCLINATION":28.3533,"RA_OF_ASC_NODE":357.7706,"ARG_OF_PERICENTER":80.9928,"MEAN_ANOMALY":279.0715,"EPHEMERIS_TYPE":0,"CLASSIFICATION_TYPE":"U","NORAD_CAT_ID":68540,"ELEMENT_SET_NO":999,"REV_AT_EPOCH":16,"BSTAR":0,"MEAN_MOTION_DOT":-3.51e-6,"MEAN_MOTION_DDOT":0},{"OBJECT_NAME":"STARLINK-37326","OBJECT_ID":"2026-070A","EPOCH":"2026-04-21T00:00:02.000160","MEAN_MOTION":15.80863914,"ECCENTRICITY":0.00013664,"INCLINATION":53.1574,"RA_OF_ASC_NODE":172.3436,"ARG_OF_PERICENTER":107.8823,"MEAN_ANOMALY":313.8137,"EPHEMERIS_TYPE":0,"CLASSIFICATION_TYPE":"U","NORAD_CAT_ID":68542,"ELEMENT_SET_NO":999,"REV_AT_EPOCH":418,"BSTAR":-0.00013551769,"MEAN_MOTION_DOT":-0.00027351,"MEAN_MOTION_DDOT":0},{"OBJECT_NAME":"STARLINK-36308","OBJECT_ID":"2026-070B","EPOCH":"2026-04-21T00:00:02.000160","MEAN_MOTION":15.8086651,"ECCENTRICITY":9.944e-5,"INCLINATION":53.1574,"RA_OF_ASC_NODE":172.3346,"ARG_OF_PERICENTER":94.1255,"MEAN_ANOMALY":331.8405,"EPHEMERIS_TYPE":0,"CLASSIFICATION_TYPE":"U","NORAD_CAT_ID":68543,"ELEMENT_SET_NO":999,"REV_AT_EPOCH":413,"BSTAR":-9.9001267e-5,"MEAN_MOTION_DOT":-0.00020186,"MEAN_MOTION_DDOT":0},{"OBJECT_NAME":"STARLINK-37263","OBJECT_ID":"2026-070C","EPOCH":"2026-04-21T00:00:02.000160","MEAN_MOTION":15.80881162,"ECCENTRICITY":0.00011111,"INCLINATION":53.1574,"RA_OF_ASC_NODE":172.3174,"ARG_OF_PERICENTER":121.1549,"MEAN_ANOMALY":313.3499,"EPHEMERIS_TYPE":0,"CLASSIFICATION_TYPE":"U","NORAD_CAT_ID":68544,"ELEMENT_SET_NO":999,"REV_AT_EPOCH":418,"BSTAR":-0.00029666273,"MEAN_MOTION_DOT":-0.00058875,"MEAN_MOTION_DDOT":0},{"OBJECT_NAME":"STARLINK-37289","OBJECT_ID":"2026-070D","EPOCH":"2026-04-21T00:00:02.000160","MEAN_MOTION":15.80855072,"ECCENTRICITY":9.818e-5,"INCLINATION":53.1574,"RA_OF_ASC_NODE":172.3259,"ARG_OF_PERICENTER":68.3343,"MEAN_ANOMALY":1.907,"EPHEMERIS_TYPE":0,"CLASSIFICATION_TYPE":"U","NORAD_CAT_ID":68545,"ELEMENT_SET_NO":999,"REV_AT_EPOCH":418,"BSTAR":-5.4248189e-5,"MEAN_MOTION_DOT":-0.00011382,"MEAN_MOTION_DDOT":0},{"OBJECT_NAME":"STARLINK-37290","OBJECT_ID":"2026-070E","EPOCH":"2026-04-21T00:00:02.000160","MEAN_MOTION":15.80882398,"ECCENTRICITY":0.00015579,"INCLINATION":53.1575,"RA_OF_ASC_NODE":172.308,"ARG_OF_PERICENTER":118.3107,"MEAN_ANOMALY":320.4672,"EPHEMERIS_TYPE":0,"CLASSIFICATION_TYPE":"U","NORAD_CAT_ID":68546,"ELEMENT_SET_NO":999,"REV_AT_EPOCH":418,"BSTAR":-0.00030833325,"MEAN_MOTION_DOT":-0.00061155,"MEAN_MOTION_DDOT":0},{"OBJECT_NAME":"STARLINK-37245","OBJECT_ID":"2026-070F","EPOCH":"2026-04-21T00:00:02.000160","MEAN_MOTION":15.80872934,"ECCENTRICITY":8.909e-5,"INCLINATION":53.1574,"RA_OF_ASC_NODE":172.2905,"ARG_OF_PERICENTER":117.4968,"MEAN_ANOMALY":329.8291,"EPHEMERIS_TYPE":0,"CLASSIFICATION_TYPE":"U","NORAD_CAT_ID":68547,"ELEMENT_SET_NO":999,"REV_AT_EPOCH":418,"BSTAR":-0.00016908934,"MEAN_MOTION_DOT":-0.00033939,"MEAN_MOTION_DDOT":0}]
